[{"OBJECT_NAME":"ZHANGHENG 1-02 (CSES-2)","OBJECT_ID":"2025-128A","EPOCH":"2026-03-07T17:41:43.439712","MEAN_MOTION":15.21023059,"ECCENTRICITY":0.00142277,"INCLINATION":97.3434,"RA_OF_ASC_NODE":195.9568,"ARG_OF_PERICENTER":108.2865,"MEAN_ANOMALY":251.992,"EPHEMERIS_TYPE":0,"CLASSIFICATION_TYPE":"U","NORAD_CAT_ID":64393,"ELEMENT_SET_NO":999,"REV_AT_EPOCH":4050,"BSTAR":1.646985e-6,"MEAN_MOTION_DOT":-3.1e-7,"MEAN_MOTION_DDOT":0},{"OBJECT_NAME":"AC1-002","OBJECT_ID":"2025-276CH","EPOCH":"2026-03-09T16:54:04.093056","MEAN_MOTION":15.17945166,"ECCENTRICITY":0.00020889,"INCLINATION":97.4267,"RA_OF_ASC_NODE":143.9072,"ARG_OF_PERICENTER":20.2082,"MEAN_ANOMALY":339.9235,"EPHEMERIS_TYPE":0,"CLASSIFICATION_TYPE":"U","NORAD_CAT_ID":66745,"ELEMENT_SET_NO":999,"REV_AT_EPOCH":1531,"BSTAR":0.00016926708,"MEAN_MOTION_DOT":3.369e-5,"MEAN_MOTION_DDOT":0}]
