ZHANGHENG 1-02 (CSES-2) 
1 64393U 25128A   26066.73730833 -.00000031  00000+0  16470-5 0  9994
2 64393  97.3434 195.9568 0014227 108.2865 251.9920 15.21023059 40501
AC1-002                 
1 66745U 25276CH  26068.70421404  .00003369  00000+0  16927-3 0  9992
2 66745  97.4267 143.9072 0002089  20.2082 339.9235 15.17945166 15313
